NORAD_CAT_ID,OBJECT_NAME,OBJECT_TYPE,EPOCH,MEAN_MOTION,ECCENTRICITY,INCLINATION,RA_OF_ASC_NODE,ARG_OF_PERICENTER,MEAN_ANOMALY,BSTAR,MEAN_MOTION_DOT,MEAN_MOTION_DDOT,TLE_LINE0,TLE_LINE1,TLE_LINE2,SEMIMAJOR_AXIS,PERIOD,APOGEE,PERIGEE,DECAYED
52833.0,STARLINK-4086,PAYLOAD,2023-06-04 11:14:41,15.08837897,0.0001071,53.2152,244.6907,55.213,304.8963,-1.0934e-05,-4.62e-06,0.0,0 STARLINK-4086,1 52833U 22062D   23155.46853745 -.00000462  00000-0 -10934-4 0  9996,2 52833  53.2152 244.6907 0001071  55.2130 304.8963 15.08837897 53421,6917.887,95.438,540.493,539.011,0.0
52833.0,STARLINK-4086,PAYLOAD,2023-06-05 12:40:51,15.08847855,8.27e-05,53.2161,239.9337,80.8709,279.2377,0.00011513,1.545e-05,0.0,0 STARLINK-4086,1 52833U 22062D   23156.52836942  .00001545  00000-0  11513-3 0  9998,2 52833  53.2161 239.9337 0000827  80.8709 279.2377 15.08847855 53585,6917.856,95.437,540.293,539.149,0.0
52833.0,STARLINK-4086,PAYLOAD,2023-06-06 01:23:57,15.08833921,8.27e-05,53.2175,237.5575,81.4438,278.6648,9.6481e-05,1.248e-05,0.0,0 STARLINK-4086,1 52833U 22062D   23157.05829923  .00001248  00000-0  96481-4 0  9996,2 52833  53.2175 237.5575 0000827  81.4438 278.6648 15.08833921 53666,6917.899,95.438,540.336,539.192,0.0
52833.0,STARLINK-4086,PAYLOAD,2023-06-06 10:56:16,15.08833066,9.24e-05,53.2166,235.7714,91.4263,268.6835,4.4891e-05,4.27e-06,0.0,0 STARLINK-4086,1 52833U 22062D   23157.45574195  .00000427  00000-0  44891-4 0  9994,2 52833  53.2166 235.7714 0000924  91.4263 268.6835 15.08833066 53720,6917.902,95.438,540.406,539.127,0.0
52833.0,STARLINK-4086,PAYLOAD,2023-06-07 04:25:28,15.08853821,7.49e-05,53.216,232.498,78.1231,281.9845,0.00027363,4.071e-05,0.0,0 STARLINK-4086,1 52833U 22062D   23158.18436186  .00004071  00000-0  27363-3 0  9995,2 52833  53.2160 232.4980 0000749  78.1231 281.9845 15.08853821 53837,6917.838,95.437,540.221,539.185,0.0
52833.0,STARLINK-4086,PAYLOAD,2023-06-07 07:36:15,15.08861583,9.42e-05,53.2152,231.9042,91.7756,268.3343,0.00034696,5.242e-05,0.0,0 STARLINK-4086,1 52833U 22062D   23158.31684267  .00005242  00000-0  34696-3 0  9993,2 52833  53.2152 231.9042 0000942  91.7756 268.3343 15.08861583 53857,6917.814,95.436,540.331,539.028,0.0
52833.0,STARLINK-4086,PAYLOAD,2023-06-07 21:54:43,15.08855341,9.16e-05,53.2153,229.2275,90.4046,269.7051,0.00014095,1.957e-05,0.0,0 STARLINK-4086,1 52833U 22062D   23158.91300119  .00001957  00000-0  14095-3 0  9990,2 52833  53.2153 229.2275 0000916  90.4046 269.7051 15.08855341 53941,6917.833,95.437,540.332,539.065,0.0
52833.0,STARLINK-4086,PAYLOAD,2023-06-07 23:30:06,15.0885289,0.0001264,53.2134,228.9313,89.6114,270.5023,0.00020822,3.029e-05,0.0,0 STARLINK-4086,1 52833U 22062D   23158.97924371  .00003029  00000-0  20822-3 0  9995,2 52833  53.2134 228.9313 0001264  89.6114 270.5023 15.08852890 53958,6917.841,95.437,540.58,538.832,0.0
52833.0,STARLINK-4086,PAYLOAD,2023-06-08 09:02:26,15.08828746,0.0001021,53.2147,227.1458,102.1812,257.9294,-6.4374e-05,-1.312e-05,0.0,0 STARLINK-4086,1 52833U 22062D   23159.37669589 -.00001312  00000-0 -64374-4 0  9993,2 52833  53.2147 227.1458 0001021 102.1812 257.9294 15.08828746 54010,6917.915,95.438,540.486,539.073,0.0
52833.0,STARLINK-4086,PAYLOAD,2023-06-08 12:13:12,15.08832665,0.0001029,53.2147,226.551,102.3768,257.734,-1.9363e-05,-5.96e-06,0.0,0 STARLINK-4086,1 52833U 22062D   23159.50917482 -.00000596  00000-0 -19363-4 0  9997,2 52833  53.2147 226.5510 0001029 102.3768 257.7340 15.08832665 54039,6917.903,95.438,540.48,539.056,0.0
52833.0,STARLINK-4086,PAYLOAD,2023-06-09 10:28:36,15.08837424,0.0001047,53.2138,222.3885,103.8729,256.2379,0.00027472,4.087e-05,0.0,0 STARLINK-4086,1 52833U 22062D   23160.43653523  .00004087  00000-0  27472-3 0  9990,2 52833  53.2138 222.3885 0001047 103.8729 256.2379 15.08837424 54170,6917.888,95.438,540.478,539.029,0.0
52833.0,STARLINK-4086,PAYLOAD,2023-06-09 13:39:22,15.08840598,0.0001082,53.2139,221.7936,102.2369,257.8745,0.00044269,6.765e-05,0.0,0 STARLINK-4086,1 52833U 22062D   23160.56901594  .00006765  00000-0  44269-3 0  9996,2 52833  53.2139 221.7936 0001082 102.2369 257.8745 15.08840598 54195,6917.879,95.438,540.492,538.995,0.0
52833.0,STARLINK-4086,PAYLOAD,2023-06-09 21:36:19,15.08831425,0.0001095,53.2122,220.3051,102.9647,257.1467,0.00026278,3.896e-05,0.0,0 STARLINK-4086,1 52833U 22062D   23160.90022122  .00003896  00000-0  26278-3 0  9997,2 52833  53.2122 220.3051 0001095 102.9647 257.1467 15.08831425 54249,6917.907,95.438,540.529,539.014,0.0
52833.0,STARLINK-4086,PAYLOAD,2023-06-09 23:11:42,15.08831232,0.0001081,53.2126,220.0075,104.4798,255.6314,0.00028653,4.274e-05,0.0,0 STARLINK-4086,1 52833U 22062D   23160.96646188  .00004274  00000-0  28653-3 0  9997,2 52833  53.2126 220.0075 0001081 104.4798 255.6314 15.08831232 54256,6917.907,95.438,540.52,539.024,0.0
52833.0,STARLINK-4086,PAYLOAD,2023-06-10 13:30:10,15.08832042,0.000104,53.2126,217.3316,103.6522,256.4586,0.00019986,2.894e-05,0.0,0 STARLINK-4086,1 52833U 22062D   23161.56262603  .00002894  00000-0  19986-3 0  9995,2 52833  53.2126 217.3316 0001040 103.6522 256.4586 15.08832042 54344,6917.905,95.438,540.489,539.05,0.0
52833.0,STARLINK-4086,PAYLOAD,2023-06-11 03:48:38,15.08843738,0.0001141,53.214,214.6551,103.136,256.976,0.00025672,3.801e-05,0.0,0 STARLINK-4086,1 52833U 22062D   23162.15878335  .00003801  00000-0  25672-3 0  9994,2 52833  53.2140 214.6551 0001141 103.1360 256.9760 15.08843738 54431,6917.869,95.437,540.523,538.945,0.0
52833.0,STARLINK-4086,PAYLOAD,2023-06-11 13:20:57,15.08849231,9.93e-05,53.2145,212.8728,90.5878,269.5228,0.00036234,5.485e-05,0.0,0 STARLINK-4086,1 52833U 22062D   23162.55622163  .00005485  00000-0  36234-3 0  9990,2 52833  53.2145 212.8728 0000993  90.5878 269.5228 15.08849231 54498,6917.852,95.437,540.404,539.03,0.0
52833.0,STARLINK-4086,PAYLOAD,2023-06-12 10:00:58,15.08847084,9.87e-05,53.2146,209.007,87.3224,272.7881,0.00022576,3.308e-05,0.0,0 STARLINK-4086,1 52833U 22062D   23163.41734095  .00003308  00000-0  22576-3 0  9990,2 52833  53.2146 209.0070 0000987  87.3224 272.7881 15.08847084 54629,6917.859,95.437,540.407,539.041,0.0
52833.0,STARLINK-4086,PAYLOAD,2023-06-12 19:33:17,15.08843031,9.37e-05,53.2142,207.2231,84.1866,275.9233,7.9779e-05,9.82e-06,0.0,0 STARLINK-4086,1 52833U 22062D   23163.81478134  .00000982  00000-0  79779-4 0  9996,2 52833  53.2142 207.2231 0000937  84.1866 275.9233 15.08843031 54686,6917.871,95.437,540.384,539.088,0.0
52833.0,STARLINK-4086,PAYLOAD,2023-06-13 03:30:13,15.0883541,0.0001031,53.2149,205.737,88.4749,271.6361,-0.00010418,-1.945e-05,0.0,0 STARLINK-4086,1 52833U 22062D   23164.14598392 -.00001945  00000-0 -10418-3 0  9998,2 52833  53.2149 205.7370 0001031  88.4749 271.6361 15.08835410 54736,6917.894,95.438,540.473,539.046,0.0
52833.0,STARLINK-4086,PAYLOAD,2023-06-14 03:21:00,15.08837181,0.0001037,53.2144,201.2772,92.9822,267.1289,2.3936e-05,9.3e-07,0.0,0 STARLINK-4086,1 52833U 22062D   23165.13958573  .00000093  00000-0  23936-4 0  9990,2 52833  53.2144 201.2772 0001037  92.9822 267.1289 15.08837181 54888,6917.889,95.438,540.471,539.037,0.0
52833.0,STARLINK-4086,PAYLOAD,2023-06-15 01:36:24,15.08837376,0.0001015,53.2153,197.1117,93.7438,266.367,0.00015338,2.154e-05,0.0,0 STARLINK-4086,1 52833U 22062D   23166.06694817  .00002154  00000-0  15338-3 0  9997,2 52833  53.2153 197.1117 0001015  93.7438 266.3670 15.08837376 55020,6917.888,95.438,540.456,539.051,0.0
52833.0,STARLINK-4086,PAYLOAD,2023-06-15 09:33:19,15.08839742,0.0001007,53.2146,195.6251,90.059,270.0518,0.00011672,1.57e-05,0.0,0 STARLINK-4086,1 52833U 22062D   23166.39814697  .00001570  00000-0  11672-3 0  9991,2 52833  53.2146 195.6251 0001007  90.0590 270.0518 15.08839742 55071,6917.881,95.438,540.443,539.05,0.0
52833.0,STARLINK-4086,PAYLOAD,2023-06-16 03:02:34,15.08839156,0.0001023,53.2142,192.3538,80.8013,279.3094,9.8772e-05,1.284e-05,0.0,0 STARLINK-4086,1 52833U 22062D   23167.12678893  .00001284  00000-0  98772-4 0  9998,2 52833  53.2142 192.3538 0001023  80.8013 279.3094 15.08839156 55186,6917.883,95.438,540.456,539.04,0.0
52833.0,STARLINK-4086,PAYLOAD,2023-06-16 09:24:07,15.08841469,0.0001023,53.2143,191.1644,80.7779,279.3329,0.00010602,1.4e-05,0.0,0 STARLINK-4086,1 52833U 22062D   23167.39174842  .00001400  00000-0  10602-3 0  9997,2 52833  53.2143 191.1644 0001023  80.7779 279.3329 15.08841469 55226,6917.876,95.437,540.449,539.033,0.0
52833.0,STARLINK-4086,PAYLOAD,2023-06-16 18:56:25,15.08840198,0.0001038,53.2143,189.3806,79.2979,280.813,8.2126e-05,1.02e-05,0.0,0 STARLINK-4086,1 52833U 22062D   23167.78918953  .00001020  00000-0  82126-4 0  9998,2 52833  53.2143 189.3806 0001038  79.2979 280.8130 15.08840198 55287,6917.88,95.438,540.463,539.027,0.0
52833.0,STARLINK-4086,PAYLOAD,2023-06-17 07:39:31,15.08838339,0.0001061,53.2143,187.0018,78.6014,281.5097,5.3878e-05,5.7e-06,0.0,0 STARLINK-4086,1 52833U 22062D   23168.31911130  .00000570  00000-0  53878-4 0  9999,2 52833  53.2143 187.0018 0001061  78.6014 281.5097 15.08838339 55369,6917.885,95.438,540.484,539.016,0.0
52833.0,STARLINK-4086,PAYLOAD,2023-06-18 10:41:04,15.08842469,0.0001062,53.2158,181.9459,85.7286,274.3828,9.4238e-05,1.212e-05,0.0,0 STARLINK-4086,1 52833U 22062D   23169.44518841  .00001212  00000-0  94238-4 0  9995,2 52833  53.2158 181.9459 0001062  85.7286 274.3828 15.08842469 55538,6917.873,95.437,540.473,539.003,0.0
52833.0,STARLINK-4086,PAYLOAD,2023-06-19 07:21:05,15.08842009,0.0001046,53.2156,178.0802,83.2395,276.8716,9.6688e-05,1.251e-05,0.0,0 STARLINK-4086,1 52833U 22062D   23170.30630835  .00001251  00000-0  96688-4 0  9994,2 52833  53.2156 178.0802 0001046  83.2395 276.8716 15.08842009 55668,6917.874,95.437,540.463,539.016,0.0
52833.0,STARLINK-4086,PAYLOAD,2023-06-20 00:50:19,15.08837628,0.0001061,53.2154,174.8092,82.3664,277.7449,3.5822e-05,2.82e-06,0.0,0 STARLINK-4086,1 52833U 22062D   23171.03495286  .00000282  00000-0  35822-4 0  9990,2 52833  53.2154 174.8092 0001061  82.3664 277.7449 15.08837628 55773,6917.888,95.438,540.487,539.019,0.0
